GOES 1 (SMS-C)          
1 08366U 75100A   25335.41175014 -.00000051  00000+0  00000+0 0  9992
2 08366   5.1125 279.9277 0006241 338.0659 213.9250  1.00226438183087
GOES 2                  
1 10061U 77048A   25335.01459966  .00000123  00000+0  00000+0 0  9996
2 10061   6.8927 294.9956 0012378  38.8977 150.7927  0.99394932 44309
GOES 3                  
1 10953U 78062A   25335.38202330 -.00000143  00000+0  00000+0 0  9997
2 10953   7.3515 300.7001 0003424 311.3619  59.4826  0.99358701126576
GOES 4                  
1 11964U 80074A   25335.34897770 -.00000171  00000+0  00000+0 0  9991
2 11964   8.4168 304.4210 0029916 102.5523  85.6525  0.99230016125479
GOES 5                  
1 12472U 81049A   25335.41851020 -.00000257  00000+0  00000+0 0  9990
2 12472   9.7145 316.9472 0005091 307.1226 244.7173  1.00238064120861
GOES 6                  
1 14050U 83041A   25335.43159112 -.00000171  00000+0  00000+0 0  9998
2 14050  10.5075 322.5000 0003878 269.4590 262.3368  1.00223595214030
GOES 7                  
1 17561U 87022A   25335.28865733 -.00000136  00000+0  00000+0 0  9998
2 17561  13.1076 339.0279 0002049 343.9042 203.5984  0.99908461124984
GOES 8                  
1 23051U 94022A   25335.12908704 -.00000018  00000+0  00000+0 0  9995
2 23051  14.2608  15.1736 0001041  19.7848 348.8711  0.98903383122178
GOES 9                  
1 23581U 95025A   25334.73055963  .00000045  00000+0  00000+0 0  9992
2 23581  13.7856  15.9884 0007484 197.6543 175.6161  0.98798040110806
GOES 10                 
1 24786U 97019A   25335.02898644 -.00000234  00000+0  00000+0 0  9990
2 24786  12.8920  22.5105 0032921 232.3897 307.6781  0.99124444104102
GOES 11                 
1 26352U 00022A   25335.00038624 -.00000228  00000+0  00000+0 0  9994
2 26352  11.3825  48.3463 0006573 220.7273 138.7741  0.99044779 50502
GOES 12                 
1 26871U 01031A   25334.99735289 -.00000237  00000+0  00000+0 0  9999
2 26871  11.8239  38.9282 0007288 272.9076  79.2050  0.99139103 88790
EWS-G1 (GOES 13)        
1 29155U 06018A   25335.29541736 -.00000032  00000+0  00000+0 0  9996
2 29155   4.0166  78.8369 0060068 268.3545 216.1271  0.98786706 41292
GOES 14                 
1 35491U 09033A   25335.41140346 -.00000046  00000+0  00000+0 0  9997
2 35491   1.1671  85.5426 0004108 148.4701 236.2775  1.00272666  4611
EWS-G2 (GOES 15)        
1 36411U 10008A   25335.44511704  .00000059  00000+0  00000+0 0  9990
2 36411   0.7833  86.0266 0005873 169.3034  37.0061  1.00267712 57651
GOES 16                 
1 41866U 16071A   25335.37197583 -.00000069  00000+0  00000+0 0  9995
2 41866   0.0573 106.3401 0003391 142.9148 210.4879  1.00271206 33121
GOES 17                 
1 43226U 18022A   25335.41513016 -.00000161  00000+0  00000+0 0  9996
2 43226   0.4276  89.3776 0003408 180.5664 220.5393  1.00270104 28440
GOES 18                 
1 51850U 22021A   25335.40577009  .00000118  00000+0  00000+0 0  9994
2 51850   0.0059  73.3655 0000634 217.5715 148.6725  1.00269313  4603
GOES 19                 
1 60133U 24119A   25335.41799019 -.00000227  00000+0  00000+0 0  9998
2 60133   0.0071 199.3391 0001185  93.7052 212.7934  1.00272114  4986
